25883,GLOBALSTAR M024,1999,129.71,-1.0,-,52.0,Inactive,0,MEO,USA,Globalstar,Unknown,Unknown,Unknown,1 25883U 99043A   24273.64822336 -.00000125  00000+0 -21374-2 0  9991,2 25883  51.9995 248.4880 0001816  26.3146 144.4157 11.10162267 85925,11.10162267,0.0001816,MEO
25884,GLOBALSTAR M027,1999,130.39,-1.0,-,52.02,Inactive,0,MEO,USA,Globalstar,Unknown,Unknown,Unknown,1 25884U 99043B   24273.81998793  .00000000  00000+0  24103-2 0  9995,2 25884  52.0234 318.7089 0020946 290.8379  69.0171 11.04369730112473,11.0436973,0.0020946,MEO
25886,GLOBALSTAR M053,1999,127.7,-1.0,-,52.0,Inactive,0,LEO,USA,Globalstar,Unknown,Unknown,Unknown,1 25886U 99043D   24273.84176310 -.00000053  00000+0  44509-3 0  9995,2 25886  51.9987  62.2928 0003435  15.0359 134.4596 11.27659016 90073,11.27659016,0.0003435,LEO
25907,GLOBALSTAR M058,1999,120.69,-1.0,-,51.99,Inactive,0,LEO,Kazakhstan,Globalstar,Unknown,Unknown,Unknown,1 25907U 99049A   24273.86545746 -.00000065  00000+0  25881-3 0  9995,2 25907  51.9928  84.2937 0002673 120.3554 239.7546 11.93183344510469,11.93183344,0.0002673,LEO
25909,GLOBALSTAR M033,1999,118.01,-1.0,-,51.99,Inactive,0,LEO,Kazakhstan,Globalstar,Unknown,Unknown,Unknown,1 25909U 99049C   24273.63186600  .00000068  00000+0  15339-2 0  9990,2 25909  51.9942   1.8938 0013292  90.1456 270.0914 12.20282217503938,12.20282217,0.0013292,LEO
25910,GLOBALSTAR M055,1999,117.13,-1.0,-,52.0,Inactive,0,LEO,Kazakhstan,Globalstar,Unknown,Unknown,Unknown,1 25910U 99049D   24273.76852087 -.00000067  00000+0  23377-3 0  9997,2 25910  52.0047  24.9277 0006414 313.9007  46.1314 12.29409833136253,12.29409833,0.0006414,LEO
